     2.10           NAVIGATION                              RINEX VERSION / TYPE
hgextrnav           John Knutson        11/05/2015 16:38:56 PGM / RUN BY / DATE
   .745058D-08 .711478D-08-.603921D-08-.384468D-08          ION ALPHA
   .901120D+05 .365063D+05-.664019D+04-.169091D+05          ION BETA
     -.931322574615D-09-.355271367880D-14   233472     1854 DELTA-UTC: A0,A1,T,W
    17                                                      LEAP SECONDS
                                                            END OF HEADER
 2 15  7 19  1 59 28.0  .579084269702D-03  .227373675443D-11  .000000000000D+00
     .700000000000D+01 -.646250000000D+02  .489591822036D-08 -.136404614938D+01
    -.324845314026D-05  .146582192974D-01  .101532787085D-04  .515359719276D+04
     .716800000000D+04  .320374965668D-06 -.296605403382D+01  .117346644402D-06
     .941587707856D+00  .168968750000D+03 -.224753761329D+01 -.804390648956D-08
     .789318592573D-10  .100000000000D+01  .185400000000D+04  .000000000000D+00
     .240000000000D+01  .000000000000D+00 -.204890966415D-07  .700000000000D+01
     .600000000000D+01  .400000000000D+01
 5 15  7 19  2  0  0.0 -.216410961002D-03  .432009983342D-11  .000000000000D+00
     .900000000000D+02  .446562500000D+02  .516342936327D-08  .114011648462D+01
     .256486237049D-05  .422265403904D-02  .783987343311D-05  .515359938049D+04
     .720000000000D+04  .316649675369D-07 -.189456825013D+01  .633299350739D-07
     .946119702255D+00  .219437500000D+03  .374591121212D+00 -.833891877801D-08
     .350371737246D-09  .100000000000D+01  .185400000000D+04  .000000000000D+00
     .240000000000D+01  .000000000000D+00 -.107102096081D-07  .900000000000D+02
     .600000000000D+01  .400000000000D+01
10 15  7 19  2  0  0.0 -.183086376637D-03 -.147792889038D-11  .000000000000D+00
     .830000000000D+02  .371875000000D+02  .530450666828D-08  .141810115527D+01
     .199489295483D-05  .148655168014D-01  .834278762341D-05  .515369647026D+04
     .720000000000D+04 -.387430191040D-06 -.187978432479D+01  .949949026108D-07
     .940903743915D+00  .213062500000D+03  .938440242534D+00 -.850714007082D-08
     .372515516767D-09  .100000000000D+01  .185400000000D+04  .000000000000D+00
     .485000000000D+01  .630000000000D+02 -.279396772385D-08  .830000000000D+02
     .600000000000D+01  .400000000000D+01
12 15  7 19  2  0  0.0  .311151612550D-03  .329691829393D-11  .000000000000D+00
     .340000000000D+02  .940937500000D+02  .372979821821D-08 -.304963378405D+01
     .485405325890D-05  .555583776440D-02  .559538602829D-05  .515364695740D+04
     .720000000000D+04  .372529029846D-07  .130201702281D+01  .130385160446D-07
     .989699429114D+00  .286718750000D+03  .637380893335D+00 -.777675250439D-08
     .426803492364D-09  .100000000000D+01  .185400000000D+04  .000000000000D+00
     .240000000000D+01  .000000000000D+00 -.125728547573D-07  .340000000000D+02
     .600000000000D+01  .400000000000D+01
20 15  7 19  1 59 44.0  .339575577527D-03  .318323145621D-11  .000000000000D+00
     .200000000000D+01  .454687500000D+02  .553594488004D-08 -.388440215568D+00
     .243261456490D-05  .478390394710D-02  .831484794617D-05  .515361172485D+04
     .718400000000D+04 -.465661287308D-07 -.196115651701D+01  .484287738800D-07
     .925950487269D+00  .200343750000D+03  .117986785435D+01 -.856785688563D-08
     .427874965567D-09  .100000000000D+01  .185400000000D+04  .000000000000D+00
     .240000000000D+01  .000000000000D+00 -.838190317154D-08  .200000000000D+01
     .600000000000D+01  .400000000000D+01
29 15  7 19  2  0  0.0  .623164232820D-03  .204636307899D-11  .000000000000D+00
     .790000000000D+02 -.652500000000D+02  .444054210926D-08  .274586642280D+01
    -.345893204212D-05  .107518525328D-02  .319443643093D-05  .515372912407D+04
     .720000000000D+04 -.242143869400D-07  .235644944756D+01  .484287738800D-07
     .973942376518D+00  .320937500000D+03 -.482956921300D+00 -.825141513313D-08
    -.910752222200D-10  .100000000000D+01  .185400000000D+04  .000000000000D+00
     .240000000000D+01  .000000000000D+00 -.102445483208D-07  .790000000000D+02
     .600000000000D+01  .400000000000D+01
 6 15  7 19  2  0  0.0  .193603336811D-04  .818545231596D-11  .000000000000D+00
     .200000000000D+02 -.722812500000D+02  .436803908922D-08  .307946015576D+00
    -.368431210518D-05  .121457502246D-03  .104941427708D-04  .515379579735D+04
     .720000000000D+04 -.372529029846D-07 -.293583893405D+01  .149011611938D-07
     .962811672148D+00  .180343750000D+03  .294235766336D+01 -.785175562857D-08
     .475019786481D-10  .100000000000D+01  .185400000000D+04  .000000000000D+00
     .240000000000D+01  .000000000000D+00  .419095158577D-08  .200000000000D+02
     .360000000000D+02  .400000000000D+01
25 15  7 19  2  0  0.0 -.146855600178D-04 -.454747350886D-11  .000000000000D+00
     .770000000000D+02  .983437500000D+02  .397445126613D-08  .256989120683D+01
     .507384538651D-05  .465063157026D-02  .600330531597D-05  .515365610313D+04
     .720000000000D+04  .428408384323D-07  .125476448650D+01 -.633299350739D-07
     .978189328643D+00  .272562500000D+03  .755795312400D+00 -.794925969000D-08
     .422160441820D-09  .100000000000D+01  .185400000000D+04  .000000000000D+00
     .240000000000D+01  .000000000000D+00  .512227416039D-08  .770000000000D+02
     .360000000000D+02  .400000000000D+01
13 15  7 19  1 59 44.0 -.133371911943D-03 -.329691829393D-11  .000000000000D+00
     .100000000000D+02 -.256250000000D+02  .454340353671D-08 -.173403640933D+01
    -.139698386192D-05  .489151978400D-02  .581145286560D-05  .515367815590D+04
     .718400000000D+04 -.158324837685D-06 -.727983873348D+00  .689178705215D-07
     .973619656790D+00  .271500000000D+03  .209948878077D+01 -.807212195057D-08
    -.540022494104D-09  .100000000000D+01  .185400000000D+04  .000000000000D+00
     .240000000000D+01  .000000000000D+00 -.111758708954D-07  .100000000000D+02
     .246000000000D+03  .400000000000D+01
15 15  7 19  2  0  0.0 -.261238310486D-03 -.204636307899D-11  .000000000000D+00
     .170000000000D+02 -.190312500000D+02  .560380484954D-08 -.446959080451D+00
    -.108405947685D-05  .722393835895D-02  .475347042084D-05  .515366981125D+04
     .720000000000D+04  .894069671631D-07 -.888777182966D+00  .894069671631D-07
     .932666716375D+00  .271812500000D+03  .391924577758D+00 -.868393314924D-08
    -.414302971667D-09  .100000000000D+01  .185400000000D+04  .000000000000D+00
     .240000000000D+01  .000000000000D+00 -.107102096081D-07  .170000000000D+02
     .123600000000D+04  .400000000000D+01
21 15  7 19  2  0  0.0 -.464881304651D-03 -.318323145621D-11  .000000000000D+00
     .330000000000D+02 -.932500000000D+02  .483770150969D-08  .282609944803D+01
    -.486895442009D-05  .224871648243D-01  .108182430267D-04  .515379832649D+04
     .720000000000D+04  .199303030968D-06 -.295183954787D+01 -.271946191788D-06
     .934665337500D+00  .154500000000D+03 -.189268727542D+01 -.776425198369D-08
    -.567880797372D-10  .100000000000D+01  .185400000000D+04  .000000000000D+00
     .240000000000D+01  .000000000000D+00 -.116415321827D-07  .330000000000D+02
     .141600000000D+04  .400000000000D+01
 5 15  7 19  1 59 44.0 -.216410495341D-03  .432009983342D-11  .000000000000D+00
     .180000000000D+02  .446562500000D+02  .516342936327D-08  .113778260071D+01
     .256486237049D-05  .422265822999D-02  .783987343311D-05  .515359939003D+04
     .718400000000D+04  .316649675369D-07 -.189456813310D+01  .633299350739D-07
     .946119694940D+00  .219437500000D+03  .374591090491D+00 -.833891877801D-08
     .350371737246D-09  .100000000000D+01  .185400000000D+04  .000000000000D+00
     .240000000000D+01  .000000000000D+00 -.107102096081D-07  .180000000000D+02
     .420600000000D+04  .400000000000D+01
18 15  7 19  2  0  0.0  .418359879404D-03  .306954461848D-11  .000000000000D+00
     .230000000000D+02  .391562500000D+02  .556701760291D-08  .177775820162D+01
     .175461173058D-05  .163556335028D-01  .857748091221D-05  .515361542511D+04
     .720000000000D+04 -.184401869774D-06 -.190888095201D+01 -.372529029846D-06
     .924717098110D+00  .196531250000D+03 -.194662990433D+01 -.844713757147D-08
     .480019994760D-09  .100000000000D+01  .185400000000D+04  .000000000000D+00
     .240000000000D+01  .000000000000D+00 -.111758708954D-07  .230000000000D+02
     .456600000000D+04  .400000000000D+01
26 15  7 19  2  0  0.0 -.108550302684D-04 -.579802872380D-11  .000000000000D+00
     .250000000000D+02  .936562500000D+02  .442804158856D-08  .732500188190D+00
     .482983887196D-05  .292644253932D-03  .627525150776D-05  .515360680580D+04
     .720000000000D+04  .223517417908D-07  .125126968932D+01 -.596046447754D-07
     .960294540191D+00  .257968750000D+03  .127884593503D+01 -.817105464294D-08
     .363229415677D-09  .100000000000D+01  .185400000000D+04  .000000000000D+00
     .240000000000D+01  .000000000000D+00  .745058059692D-08  .250000000000D+02
     .603600000000D+04  .400000000000D+01
 2 15  7 19  4  0  0.0  .579100567847D-03  .227373675443D-11  .000000000000D+00
     .180000000000D+02 -.665000000000D+02  .490663295239D-08 -.309046147527D+00
    -.337697565556D-05  .146592801902D-01  .100117176771D-04  .515360068703D+04
     .144000000000D+05 -.279396772385D-07 -.296611353216D+01  .210478901863D-06
     .941586679425D+00  .182343750000D+03 -.224764079730D+01 -.838820654533D-08
     .607168148133D-10  .100000000000D+01  .185400000000D+04  .000000000000D+00
     .240000000000D+01  .000000000000D+00 -.204890966415D-07  .180000000000D+02
     .720600000000D+04  .400000000000D+01
